CCSDS_OMM_VERS = 2.0
CREATION_DATE  = 
ORIGINATOR     = 

OBJECT_NAME    = STARLINK-36586
OBJECT_ID      = 2026-014S
CENTER_NAME    = EARTH
REF_FRAME      = TEME
TIME_SYSTEM    = UTC
MEAN_ELEMENT_THEORY = SGP/SGP4

EPOCH          = 2026-02-07T04:00:01.999584
MEAN_MOTION    = 15.80850758
ECCENTRICITY   = .0001637
INCLINATION    = 97.2849
RA_OF_ASC_NODE = 281.5645
ARG_OF_PERICENTER = 81.2410
MEAN_ANOMALY   = 29.2436

EPHEMERIS_TYPE = 0
CLASSIFICATION_TYPE = U
NORAD_CAT_ID   = 67548
ELEMENT_SET_NO = 999
REV_AT_EPOCH   = 378
BSTAR          = -.27464E-3
MEAN_MOTION_DOT = -.52519E-3
MEAN_MOTION_DDOT = 0

CCSDS_OMM_VERS = 2.0
CREATION_DATE  = 
ORIGINATOR     = 

OBJECT_NAME    = STARLINK-36564
OBJECT_ID      = 2026-014T
CENTER_NAME    = EARTH
REF_FRAME      = TEME
TIME_SYSTEM    = UTC
MEAN_ELEMENT_THEORY = SGP/SGP4

EPOCH          = 2026-02-07T04:00:01.999584
MEAN_MOTION    = 15.80396214
ECCENTRICITY   = .0002112
INCLINATION    = 97.2846
RA_OF_ASC_NODE = 281.5673
ARG_OF_PERICENTER = 90.7578
MEAN_ANOMALY   = 26.4041

EPHEMERIS_TYPE = 0
CLASSIFICATION_TYPE = U
NORAD_CAT_ID   = 67549
ELEMENT_SET_NO = 999
REV_AT_EPOCH   = 372
BSTAR          = -.12112E-1
MEAN_MOTION_DOT = -.1977712E-1
MEAN_MOTION_DDOT = 0

CCSDS_OMM_VERS = 2.0
CREATION_DATE  = 
ORIGINATOR     = 

OBJECT_NAME    = STARLINK-36563
OBJECT_ID      = 2026-014U
CENTER_NAME    = EARTH
REF_FRAME      = TEME
TIME_SYSTEM    = UTC
MEAN_ELEMENT_THEORY = SGP/SGP4

EPOCH          = 2026-02-07T04:00:01.999584
MEAN_MOTION    = 15.80813079
ECCENTRICITY   = .0001602
INCLINATION    = 97.2816
RA_OF_ASC_NODE = 281.5675
ARG_OF_PERICENTER = 97.1244
MEAN_ANOMALY   = 26.8782

EPHEMERIS_TYPE = 0
CLASSIFICATION_TYPE = U
NORAD_CAT_ID   = 67550
ELEMENT_SET_NO = 999
REV_AT_EPOCH   = 378
BSTAR          = .43445E-3
MEAN_MOTION_DOT = .8387E-3
MEAN_MOTION_DDOT = 0

CCSDS_OMM_VERS = 2.0
CREATION_DATE  = 
ORIGINATOR     = 

OBJECT_NAME    = STARLINK-36566
OBJECT_ID      = 2026-014V
CENTER_NAME    = EARTH
REF_FRAME      = TEME
TIME_SYSTEM    = UTC
MEAN_ELEMENT_THEORY = SGP/SGP4

EPOCH          = 2026-02-07T04:00:01.999584
MEAN_MOTION    = 15.80814331
ECCENTRICITY   = .000248
INCLINATION    = 97.2841
RA_OF_ASC_NODE = 281.5717
ARG_OF_PERICENTER = 59.5489
MEAN_ANOMALY   = 70.6435

EPHEMERIS_TYPE = 0
CLASSIFICATION_TYPE = U
NORAD_CAT_ID   = 67551
ELEMENT_SET_NO = 999
REV_AT_EPOCH   = 378
BSTAR          = .92094E-4
MEAN_MOTION_DOT = .17535E-3
MEAN_MOTION_DDOT = 0

CCSDS_OMM_VERS = 2.0
CREATION_DATE  = 
ORIGINATOR     = 

OBJECT_NAME    = STARLINK-36567
OBJECT_ID      = 2026-014W
CENTER_NAME    = EARTH
REF_FRAME      = TEME
TIME_SYSTEM    = UTC
MEAN_ELEMENT_THEORY = SGP/SGP4

EPOCH          = 2026-02-07T04:00:01.999584
MEAN_MOTION    = 15.75189916
ECCENTRICITY   = .0001902
INCLINATION    = 97.2775
RA_OF_ASC_NODE = 281.5632
ARG_OF_PERICENTER = 112.2698
MEAN_ANOMALY   = 4.2343

EPHEMERIS_TYPE = 0
CLASSIFICATION_TYPE = U
NORAD_CAT_ID   = 67552
ELEMENT_SET_NO = 999
REV_AT_EPOCH   = 378
BSTAR          = .71064E-4
MEAN_MOTION_DOT = .10483E-3
MEAN_MOTION_DDOT = 0

CCSDS_OMM_VERS = 2.0
CREATION_DATE  = 
ORIGINATOR     = 

OBJECT_NAME    = STARLINK-36569
OBJECT_ID      = 2026-014X
CENTER_NAME    = EARTH
REF_FRAME      = TEME
TIME_SYSTEM    = UTC
MEAN_ELEMENT_THEORY = SGP/SGP4

EPOCH          = 2026-02-07T04:00:01.999584
MEAN_MOTION    = 15.80790351
ECCENTRICITY   = .0000948
INCLINATION    = 97.2747
RA_OF_ASC_NODE = 281.5749
ARG_OF_PERICENTER = 92.2275
MEAN_ANOMALY   = 52.5248

EPHEMERIS_TYPE = 0
CLASSIFICATION_TYPE = U
NORAD_CAT_ID   = 67553
ELEMENT_SET_NO = 999
REV_AT_EPOCH   = 378
BSTAR          = .41465E-3
MEAN_MOTION_DOT = .79918E-3
MEAN_MOTION_DDOT = 0

CCSDS_OMM_VERS = 2.0
CREATION_DATE  = 
ORIGINATOR     = 

OBJECT_NAME    = STARLINK-36395
OBJECT_ID      = 2026-014Y
CENTER_NAME    = EARTH
REF_FRAME      = TEME
TIME_SYSTEM    = UTC
MEAN_ELEMENT_THEORY = SGP/SGP4

EPOCH          = 2026-02-07T04:00:01.999584
MEAN_MOTION    = 15.75175584
ECCENTRICITY   = .0001592
INCLINATION    = 97.2768
RA_OF_ASC_NODE = 281.5770
ARG_OF_PERICENTER = 99.9985
MEAN_ANOMALY   = 48.5236

EPHEMERIS_TYPE = 0
CLASSIFICATION_TYPE = U
NORAD_CAT_ID   = 67554
ELEMENT_SET_NO = 999
REV_AT_EPOCH   = 378
BSTAR          = .12168E-3
MEAN_MOTION_DOT = .18047E-3
MEAN_MOTION_DDOT = 0

CCSDS_OMM_VERS = 2.0
CREATION_DATE  = 
ORIGINATOR     = 

OBJECT_NAME    = STARLINK-36559
OBJECT_ID      = 2026-014Z
CENTER_NAME    = EARTH
REF_FRAME      = TEME
TIME_SYSTEM    = UTC
MEAN_ELEMENT_THEORY = SGP/SGP4

EPOCH          = 2026-02-07T04:00:01.999584
MEAN_MOTION    = 15.75168773
ECCENTRICITY   = .00017
INCLINATION    = 97.2772
RA_OF_ASC_NODE = 281.5736
ARG_OF_PERICENTER = 88.7290
MEAN_ANOMALY   = 51.7904

EPHEMERIS_TYPE = 0
CLASSIFICATION_TYPE = U
NORAD_CAT_ID   = 67555
ELEMENT_SET_NO = 999
REV_AT_EPOCH   = 378
BSTAR          = .25143E-3
MEAN_MOTION_DOT = .37504E-3
MEAN_MOTION_DDOT = 0

CCSDS_OMM_VERS = 2.0
CREATION_DATE  = 
ORIGINATOR     = 

OBJECT_NAME    = MR-1
OBJECT_ID      = 2026-015A
CENTER_NAME    = EARTH
REF_FRAME      = TEME
TIME_SYSTEM    = UTC
MEAN_ELEMENT_THEORY = SGP/SGP4

EPOCH          = 2026-02-07T03:54:14.594688
MEAN_MOTION    = 13.52686067
ECCENTRICITY   = .000511
INCLINATION    = 88.9982
RA_OF_ASC_NODE = 281.7649
ARG_OF_PERICENTER = 93.2426
MEAN_ANOMALY   = 266.9311

EPHEMERIS_TYPE = 0
CLASSIFICATION_TYPE = U
NORAD_CAT_ID   = 67556
ELEMENT_SET_NO = 999
REV_AT_EPOCH   = 213
BSTAR          = .60865E-4
MEAN_MOTION_DOT = .52E-6
MEAN_MOTION_DDOT = 0

CCSDS_OMM_VERS = 2.0
CREATION_DATE  = 
ORIGINATOR     = 

OBJECT_NAME    = MR-2
OBJECT_ID      = 2026-015B
CENTER_NAME    = EARTH
REF_FRAME      = TEME
TIME_SYSTEM    = UTC
MEAN_ELEMENT_THEORY = SGP/SGP4

EPOCH          = 2026-02-07T03:54:39.205728
MEAN_MOTION    = 13.52660908
ECCENTRICITY   = .0005162
INCLINATION    = 88.9981
RA_OF_ASC_NODE = 281.7650
ARG_OF_PERICENTER = 92.3685
MEAN_ANOMALY   = 267.8058

EPHEMERIS_TYPE = 0
CLASSIFICATION_TYPE = U
NORAD_CAT_ID   = 67557
ELEMENT_SET_NO = 999
REV_AT_EPOCH   = 213
BSTAR          = .33768E-4
MEAN_MOTION_DOT = .34E-6
MEAN_MOTION_DDOT = 0

CCSDS_OMM_VERS = 2.0
CREATION_DATE  = 
ORIGINATOR     = 

OBJECT_NAME    = ELECTRON R/B
OBJECT_ID      = 2026-015C
CENTER_NAME    = EARTH
REF_FRAME      = TEME
TIME_SYSTEM    = UTC
MEAN_ELEMENT_THEORY = SGP/SGP4

EPOCH          = 2026-02-07T03:35:03.238656
MEAN_MOTION    = 15.14726266
ECCENTRICITY   = .051088
INCLINATION    = 89.0000
RA_OF_ASC_NODE = 281.3278
ARG_OF_PERICENTER = 212.7232
MEAN_ANOMALY   = 144.1402

EPHEMERIS_TYPE = 0
CLASSIFICATION_TYPE = U
NORAD_CAT_ID   = 67558
ELEMENT_SET_NO = 999
REV_AT_EPOCH   = 235
BSTAR          = .13905E-2
MEAN_MOTION_DOT = .1699012E-1
MEAN_MOTION_DDOT = -.79778E-6

CCSDS_OMM_VERS = 2.0
CREATION_DATE  = 
ORIGINATOR     = 

OBJECT_NAME    = ELECTRON KICK STAGE R/B
OBJECT_ID      = 2026-015D
CENTER_NAME    = EARTH
REF_FRAME      = TEME
TIME_SYSTEM    = UTC
MEAN_ELEMENT_THEORY = SGP/SGP4

EPOCH          = 2026-02-07T04:19:40.639008
MEAN_MOTION    = 14.67255021
ECCENTRICITY   = .0532353
INCLINATION    = 89.0509
RA_OF_ASC_NODE = 281.5050
ARG_OF_PERICENTER = 280.4608
MEAN_ANOMALY   = 73.7062

EPHEMERIS_TYPE = 0
CLASSIFICATION_TYPE = U
NORAD_CAT_ID   = 67559
ELEMENT_SET_NO = 999
REV_AT_EPOCH   = 231
BSTAR          = .11983E-2
MEAN_MOTION_DOT = .70606E-3
MEAN_MOTION_DDOT = .33668E-6

