STARLINK-36586          
1 67548U 26014S   26038.16668981 -.00052519  00000+0 -27464-3 0  9996
2 67548  97.2849 281.5645 0001637  81.2410  29.2436 15.80850758  3786
STARLINK-36564          
1 67549U 26014T   26038.16668981 -.01977712  00000+0 -12112-1 0  9991
2 67549  97.2846 281.5673 0002112  90.7578  26.4041 15.80396214  3721
STARLINK-36563          
1 67550U 26014U   26038.16668981  .00083870  00000+0  43445-3 0  9998
2 67550  97.2816 281.5675 0001602  97.1244  26.8782 15.80813079  3781
STARLINK-36566          
1 67551U 26014V   26038.16668981  .00017535  00000+0  92094-4 0  9999
2 67551  97.2841 281.5717 0002480  59.5489  70.6435 15.80814331  3789
STARLINK-36567          
1 67552U 26014W   26038.16668981  .00010483  00000+0  71064-4 0  9999
2 67552  97.2775 281.5632 0001902 112.2698   4.2343 15.75189916  3788
STARLINK-36569          
1 67553U 26014X   26038.16668981  .00079918  00000+0  41465-3 0  9999
2 67553  97.2747 281.5749 0000948  92.2275  52.5248 15.80790351  3781
STARLINK-36395          
1 67554U 26014Y   26038.16668981  .00018047  00000+0  12168-3 0  9994
2 67554  97.2768 281.5770 0001592  99.9985  48.5236 15.75175584  3788
STARLINK-36559          
1 67555U 26014Z   26038.16668981  .00037504  00000+0  25143-3 0  9991
2 67555  97.2772 281.5736 0001700  88.7290  51.7904 15.75168773  3782
MR-1                    
1 67556U 26015A   26038.16266892  .00000052  00000+0  60865-4 0  9997
2 67556  88.9982 281.7649 0005110  93.2426 266.9311 13.52686067  2133
MR-2                    
1 67557U 26015B   26038.16295377  .00000034  00000+0  33768-4 0  9990
2 67557  88.9981 281.7650 0005162  92.3685 267.8058 13.52660908  2133
ELECTRON R/B            
1 67558U 26015C   26038.14934304  .01699012 -79778-6  13905-2 0  9995
2 67558  89.0000 281.3278 0510880 212.7232 144.1402 15.14726266  2358
ELECTRON KICK STAGE R/B 
1 67559U 26015D   26038.18033147  .00070606  33668-6  11983-2 0  9997
2 67559  89.0509 281.5050 0532353 280.4608  73.7062 14.67255021  2319
